NORAD_CAT_ID,OBJECT_NAME,OBJECT_TYPE,EPOCH,MEAN_MOTION,ECCENTRICITY,INCLINATION,RA_OF_ASC_NODE,ARG_OF_PERICENTER,MEAN_ANOMALY,BSTAR,MEAN_MOTION_DOT,MEAN_MOTION_DDOT,TLE_LINE0,TLE_LINE1,TLE_LINE2,SEMIMAJOR_AXIS,PERIOD,APOGEE,PERIGEE,DECAYED
52578.0,STARLINK-3833,PAYLOAD,2024-01-23 03:14:19,15.08836437,0.0001816,53.2191,20.2021,107.6018,252.5172,9.8275e-05,1.276e-05,0.0,0 STARLINK-3833,1 52578U 22051AU  24023.13495041  .00001276  00000-0  98275-4 0  9996,2 52578  53.2191  20.2021 0001816 107.6018 252.5172 15.08836437 94211,6917.891,95.438,541.013,538.5,0.0
52578.0,STARLINK-3833,PAYLOAD,2024-01-23 06:25:05,15.08844341,0.0001627,53.2193,19.6063,97.2113,262.9064,4.4951e-05,4.28e-06,0.0,0 STARLINK-3833,1 52578U 22051AU  24023.26742782  .00000428  00000-0  44951-4 0  9997,2 52578  53.2193  19.6063 0001627  97.2113 262.9064 15.08844341 94163,6917.867,95.437,540.858,538.607,0.0
52578.0,STARLINK-3833,PAYLOAD,2024-01-24 06:15:52,15.08849273,0.0001642,53.2192,15.1449,105.65,254.4674,3.6056e-05,2.86e-06,0.0,0 STARLINK-3833,1 52578U 22051AU  24024.26102307  .00000286  00000-0  36056-4 0  9990,2 52578  53.2192  15.1449 0001642 105.6500 254.4674 15.08849273 94388,6917.852,95.437,540.853,538.581,0.0
52578.0,STARLINK-3833,PAYLOAD,2024-01-25 02:55:53,15.08837907,0.0001985,53.2199,11.2883,120.9503,239.1684,3.2188e-05,2.24e-06,0.0,0 STARLINK-3833,1 52578U 22051AU  24025.12215087  .00000224  00000-0  32188-4 0  9990,2 52578  53.2199  11.2883 0001985 120.9503 239.1684 15.08837907 94514,6917.887,95.438,541.125,538.379,0.0
52578.0,STARLINK-3833,PAYLOAD,2024-01-25 06:06:40,15.08838022,0.0001713,53.2194,10.6921,114.7281,245.3889,-3.1299e-05,-7.86e-06,0.0,0 STARLINK-3833,1 52578U 22051AU  24025.25463332 -.00000786  00000-0 -31299-4 0  9999,2 52578  53.2194  10.6921 0001713 114.7281 245.3889 15.08838022 94467,6917.886,95.438,540.936,538.566,0.0
52578.0,STARLINK-3833,PAYLOAD,2024-01-26 02:46:41,15.08822011,0.0001838,53.2193,6.8245,114.7384,245.3799,0.00020498,2.974e-05,0.0,0 STARLINK-3833,1 52578U 22051AU  24026.11575719  .00002974  00000-0  20498-3 0  9995,2 52578  53.2193   6.8245 0001838 114.7384 245.3799 15.08822011 94667,6917.935,95.439,541.072,538.529,0.0
52578.0,STARLINK-3833,PAYLOAD,2024-01-26 05:57:27,15.08844389,0.0001464,53.2189,6.2306,93.433,266.683,1.528e-05,-4.5e-07,0.0,0 STARLINK-3833,1 52578U 22051AU  24026.24823209 -.00000045  00000-0  15280-4 0  9991,2 52578  53.2189   6.2306 0001464  93.4330 266.6830 15.08844389 94689,6917.867,95.437,540.745,538.719,0.0
52578.0,STARLINK-3833,PAYLOAD,2024-01-27 04:12:51,15.0883811,0.0001568,53.2192,2.0668,85.5182,274.5989,0.00012183,1.651e-05,0.0,0 STARLINK-3833,1 52578U 22051AU  24027.17559541  .00001651  00000-0  12183-3 0  9990,2 52578  53.2192   2.0668 0001568  85.5182 274.5989 15.08838110 94824,6917.886,95.438,540.836,538.666,0.0
52578.0,STARLINK-3833,PAYLOAD,2024-01-27 07:23:37,15.08845047,0.00016,53.2195,1.4769,96.7018,263.4156,0.00011417,1.53e-05,0.0,0 STARLINK-3833,1 52578U 22051AU  24027.30807241  .00001530  00000-0  11417-3 0  9993,2 52578  53.2195   1.4769 0001600  96.7018 263.4156 15.08845047 94775,6917.865,95.437,540.837,538.623,0.0
52578.0,STARLINK-3833,PAYLOAD,2024-01-28 05:39:01,15.08845967,0.0001699,53.2196,357.3146,73.249,286.8689,9.4554e-05,1.217e-05,0.0,0 STARLINK-3833,1 52578U 22051AU  24028.23543398  .00001217  00000-0  94554-4 0  9992,2 52578  53.2196 357.3146 0001699  73.2490 286.8689 15.08845967 94984,6917.862,95.437,540.902,538.552,0.0
52578.0,STARLINK-3833,PAYLOAD,2024-01-29 03:54:25,15.08845833,0.0001723,53.2211,353.1491,83.5368,276.5821,1.7372e-05,-1.2e-07,0.0,0 STARLINK-3833,1 52578U 22051AU  24029.16279526 -.00000012  00000-0  17372-4 0  9990,2 52578  53.2211 353.1491 0001723  83.5368 276.5821 15.08845833 95128,6917.863,95.437,540.92,538.536,0.0
52578.0,STARLINK-3833,PAYLOAD,2024-01-30 06:55:58,15.0884714,0.0001555,53.22,348.0903,91.473,268.644,4.8417e-05,4.83e-06,0.0,0 STARLINK-3833,1 52578U 22051AU  24030.28887033  .00000483  00000-0  48417-4 0  9998,2 52578  53.2200 348.0903 0001555  91.4730 268.6440 15.08847140 95291,6917.859,95.437,540.799,538.648,0.0
52578.0,STARLINK-3833,PAYLOAD,2024-01-31 02:00:36,15.08840782,0.0001593,53.2194,344.5182,100.1126,260.0046,-4.4661e-05,-9.99e-06,0.0,0 STARLINK-3833,1 52578U 22051AU  24031.08375718 -.00000999  00000-0 -44661-4 0  9990,2 52578  53.2194 344.5182 0001593 100.1126 260.0046 15.08840782 95419,6917.878,95.438,540.845,538.641,0.0
52578.0,STARLINK-3833,PAYLOAD,2024-02-01 03:26:47,15.08836102,0.0001592,53.2196,339.7609,95.373,264.7444,3.1416e-05,2.12e-06,0.0,0 STARLINK-3833,1 52578U 22051AU  24032.14360000  .00000212  00000-0  31416-4 0  9996,2 52578  53.2196 339.7609 0001592  95.3730 264.7444 15.08836102 95577,6917.892,95.438,540.859,538.656,0.0
52578.0,STARLINK-3833,PAYLOAD,2024-02-01 20:56:01,15.08835142,0.0001547,53.2197,336.4977,97.294,262.8228,7.2685e-05,8.69e-06,0.0,0 STARLINK-3833,1 52578U 22051AU  24032.87224214  .00000869  00000-0  72685-4 0  9993,2 52578  53.2197 336.4977 0001547  97.2940 262.8228 15.08835142 95611,6917.895,95.438,540.83,538.69,0.0
52578.0,STARLINK-3833,PAYLOAD,2024-02-02 01:42:11,15.08836697,0.0001521,53.2195,335.6055,102.3875,257.7288,7.9421e-05,9.76e-06,0.0,0 STARLINK-3833,1 52578U 22051AU  24033.07096113  .00000976  00000-0  79421-4 0  9995,2 52578  53.2195 335.6055 0001521 102.3875 257.7288 15.08836697 95642,6917.89,95.438,540.808,538.703,0.0
52578.0,STARLINK-3833,PAYLOAD,2024-02-03 03:08:21,15.08838103,0.0001367,53.2185,330.8499,96.4819,263.6328,3.524e-05,2.73e-06,0.0,0 STARLINK-3833,1 52578U 22051AU  24034.13080529  .00000273  00000-0  35240-4 0  9998,2 52578  53.2185 330.8499 0001367  96.4819 263.6328 15.08838103 95879,6917.886,95.438,540.697,538.806,0.0
52578.0,STARLINK-3833,PAYLOAD,2024-02-03 04:43:44,15.08840534,0.0001483,53.2191,330.55,102.961,257.1548,6.3387e-05,7.21e-06,0.0,0 STARLINK-3833,1 52578U 22051AU  24034.19704291  .00000721  00000-0  63387-4 0  9994,2 52578  53.2191 330.5500 0001483 102.9610 257.1548 15.08840534 95814,6917.879,95.438,540.77,538.718,0.0
52578.0,STARLINK-3833,PAYLOAD,2024-02-04 04:34:31,15.08845963,0.00016,53.2191,326.0841,101.9113,258.2059,0.00010858,1.441e-05,0.0,0 STARLINK-3833,1 52578U 22051AU  24035.19063882  .00001441  00000-0  10858-3 0  9993,2 52578  53.2191 326.0841 0001600 101.9113 258.2059 15.08845963 96035,6917.862,95.437,540.834,538.62,0.0
52578.0,STARLINK-3833,PAYLOAD,2024-02-05 01:14:32,15.0884329,0.0001668,53.2197,322.2138,103.9331,256.1847,5.4875e-05,5.85e-06,0.0,0 STARLINK-3833,1 52578U 22051AU  24036.05176112  .00000585  00000-0  54875-4 0  9996,2 52578  53.2197 322.2138 0001668 103.9331 256.1847 15.08843290 96163,6917.87,95.437,540.889,538.581,0.0
52578.0,STARLINK-3833,PAYLOAD,2024-02-05 12:22:13,15.08846481,0.0001945,53.2202,320.1367,126.295,233.8222,-5.4586e-06,-3.75e-06,0.0,0 STARLINK-3833,1 52578U 22051AU  24036.51543945 -.00000375  00000-0 -54586-5 0  9998,2 52578  53.2202 320.1367 0001945 126.2950 233.8222 15.08846481 96168,6917.861,95.437,541.071,538.38,0.0
52578.0,STARLINK-3833,PAYLOAD,2024-02-06 04:16:04,15.0884889,0.0001775,53.2194,317.1636,125.1536,234.9623,7.4466e-05,8.98e-06,0.0,0 STARLINK-3833,1 52578U 22051AU  24037.17783390  .00000898  00000-0  74466-4 0  9997,2 52578  53.2194 317.1636 0001775 125.1536 234.9623 15.08848890 96334,6917.853,95.437,540.946,538.49,0.0
52578.0,STARLINK-3833,PAYLOAD,2024-02-06 21:45:19,15.08841526,0.0001729,53.2181,313.8913,119.4644,240.6521,2.6313e-05,1.31e-06,0.0,0 STARLINK-3833,1 52578U 22051AU  24037.90647897  .00000131  00000-0  26313-4 0  9997,2 52578  53.2181 313.8913 0001729 119.4644 240.6521 15.08841526 96370,6917.876,95.437,540.937,538.545,0.0
52578.0,STARLINK-3833,PAYLOAD,2024-02-07 04:06:52,15.08845018,0.0001576,53.2187,312.7034,106.479,253.6376,5.3929e-05,5.7e-06,0.0,0 STARLINK-3833,1 52578U 22051AU  24038.17143644  .00000570  00000-0  53929-4 0  9998,2 52578  53.2187 312.7034 0001576 106.4790 253.6376 15.08845018 96480,6917.865,95.437,540.82,538.64,0.0
52578.0,STARLINK-3833,PAYLOAD,2024-02-07 21:36:07,15.08832633,0.0001783,53.2177,309.4301,128.7698,231.3453,-4.1795e-05,-9.53e-06,0.0,0 STARLINK-3833,1 52578U 22051AU  24038.90008780 -.00000953  00000-0 -41795-4 0  9995,2 52578  53.2177 309.4301 0001783 128.7698 231.3453 15.08832633 96526,6917.903,95.438,541.001,538.534,0.0
52578.0,STARLINK-3833,PAYLOAD,2024-02-08 03:57:39,15.08840805,0.0001404,53.218,308.2462,81.9209,278.1942,-5.7058e-05,-1.196e-05,0.0,0 STARLINK-3833,1 52578U 22051AU  24039.16504607 -.00001196  00000-0 -57058-4 0  9992,2 52578  53.2180 308.2462 0001404  81.9209 278.1942 15.08840805 96637,6917.878,95.438,540.714,538.772,0.0
52578.0,STARLINK-3833,PAYLOAD,2024-02-08 10:19:12,15.08839868,0.0001276,53.2177,307.0563,88.5624,271.5514,-5.771e-05,-1.206e-05,0.0,0 STARLINK-3833,1 52578U 22051AU  24039.43000691 -.00001206  00000-0 -57710-4 0  9993,2 52578  53.2177 307.0563 0001276  88.5624 271.5514 15.08839868 96609,6917.881,95.438,540.629,538.863,0.0
52578.0,STARLINK-3833,PAYLOAD,2024-02-08 21:26:54,15.08839715,0.000122,53.2169,304.9744,77.903,282.2099,-5.0954e-06,-3.69e-06,0.0,0 STARLINK-3833,1 52578U 22051AU  24039.89368932 -.00000369  00000-0 -50954-5 0  9991,2 52578  53.2169 304.9744 0001220  77.9030 282.2099 15.08839715 96674,6917.881,95.438,540.59,538.902,0.0
52578.0,STARLINK-3833,PAYLOAD,2024-02-08 23:02:17,15.08842552,0.0001273,53.2169,304.6771,81.3124,278.8013,1.2524e-05,-8.9e-07,0.0,0 STARLINK-3833,1 52578U 22051AU  24039.95992561 -.00000089  00000-0  12524-4 0  9997,2 52578  53.2169 304.6771 0001273  81.3124 278.8013 15.08842552 96683,6917.873,95.437,540.618,538.857,0.0
52578.0,STARLINK-3833,PAYLOAD,2024-02-10 00:28:28,15.08835104,0.0001488,53.2177,299.9229,104.3572,255.7586,9.6045e-05,1.241e-05,0.0,0 STARLINK-3833,1 52578U 22051AU  24041.01977338  .00001241  00000-0  96045-4 0  9992,2 52578  53.2177 299.9229 0001488 104.3572 255.7586 15.08835104 96917,6917.895,95.438,540.79,538.731,0.0
